IONOSFERA-M 2           
1 61736U 24199B   26198.96038564  .00000006  00000+0  22112-4 0  9992
2 61736  98.7130  71.7123 0000602 128.9511 231.1720 14.22762833135204
PRSC-EO1                
1 62725U 25012A   26198.98225034  .00003259  00000+0  16519-3 0  9994
2 62725  97.4211 270.8380 0006953 138.6617 221.5144 15.17640759 82869
BIOMASS                 
1 63772U 25090A   26198.85459446  .00000233  00000+0  49473-4 0  9990
2 63772  98.0751  25.7231 0001481  92.7347 267.4027 14.67536756 65181
GOSAT-GW (IBUKI GW)     
1 64694U 25141A   26198.93998748 -.00000069  00000+0 -37674-5 0  9993
2 64694  98.0565 135.7573 0001370  84.1440 275.9921 14.67554385 56359
IONOSFERA-M 3           
1 64876U 25155A   26198.93525852  .00000011  00000+0  24633-4 0  9997
2 64876  98.6042 160.0693 0002362 108.4295 251.7140 14.21491113 50775
IONOSFERA-M 4           
1 64877U 25155B   26198.97004705  .00000014  00000+0  25813-4 0  9995
2 64877  98.6041 160.0203 0001862  97.0629 263.0761 14.21493535 50775
MICROCARB               
1 64899U 25156A   26198.92819282  .00000251  00000+0  46902-4 0  9994
2 64899  98.0074 275.5918 0017835 162.1494 198.0344 14.72886838 52498
CO3D 3                  
1 64900U 25156B   26198.92688021  .00002141  00000+0  10199-3 0  9990
2 64900  97.4333 277.1783 0001766  93.7636 266.3802 15.20204279 54209
CO3D 4                  
1 64901U 25156C   26198.92703255  .00000643  00000+0  32842-4 0  9993
2 64901  97.4336 277.1783 0001812 149.1955 210.9387 15.20202986 54201
CO3D 2                  
1 64902U 25156D   26198.89368225  .00003224  00000+0  15195-3 0  9993
2 64902  97.4333 277.0444 0001196  92.1067 268.0305 15.20207123 54198
CO3D 1                  
1 64903U 25156E   26198.89382882  .00002250  00000+0  10698-3 0  9990
2 64903  97.4333 277.0444 0001332 103.1582 256.9802 15.20213651 54197
PRSC-S1                 
1 65055U 25164A   26198.95734806  .00002405  00000+0  17110-3 0  9990
2 65055  41.1302 114.4846 0007131 215.0729 144.9616 15.06648929 53076
SENTINEL-6B             
1 66514U 25264A   26198.92582496 -.00000045  00000+0  69349-4 0  9996
2 66514  66.0411  71.3350 0007834 268.5138  91.4980 12.80930218 31106
CAS500-3                
1 66655U 25274F   26198.80470194  .00000552  00000+0  65429-4 0  9998
2 66655  97.7435 126.1595 0006065  30.9075 329.2498 14.88387111 34708
CSG-3                   
1 67304U 26001A   26198.91635052  .00000105  00000+0  19802-4 0  9995
2 67304  97.8897  22.0743 0001527  93.4423 266.6964 14.82152966 29013
PRSC-E03                
1 68835U 26092A   26198.67330656  .00001073  00000+0  77905-4 0  9993
2 68835  38.0009 269.8907 0005033 266.3546  93.6640 15.06815202 12557
CAS500-2                
1 69013U 26100AK  26198.68366252  .00003360  00000+0  16027-3 0  9992
2 69013  97.3854  95.9559 0007927 243.1066 116.9359 15.19741424 11448
