OBJECT_NAME,OBJECT_ID,EPOCH,MEAN_MOTION,ECCENTRICITY,INCLINATION,RA_OF_ASC_NODE,ARG_OF_PERICENTER,MEAN_ANOMALY,EPHEMERIS_TYPE,CLASSIFICATION_TYPE,NORAD_CAT_ID,ELEMENT_SET_NO,REV_AT_EPOCH,BSTAR,MEAN_MOTION_DOT,MEAN_MOTION_DDOT
IONOSFERA-M 2,2024-199B,2026-07-17T23:02:57.319296,14.22762833,.00006023,98.7130,71.7123,128.9511,231.1720,0,U,61736,999,13520,.22112377E-4,.6E-7,0
PRSC-EO1,2025-012A,2026-07-17T23:34:26.429376,15.17640759,.00069534,97.4211,270.8380,138.6617,221.5144,0,U,62725,999,8286,.16519037E-3,.3259E-4,0
BIOMASS,2025-090A,2026-07-17T20:30:36.961344,14.67536756,.0001481,98.0751,25.7231,92.7347,267.4027,0,U,63772,999,6518,.49472547E-4,.233E-5,0
GOSAT-GW (IBUKI GW),2025-141A,2026-07-17T22:33:34.918272,14.67554385,.00013704,98.0565,135.7573,84.1440,275.9921,0,U,64694,999,5635,-.3767408E-5,-.69E-6,0
IONOSFERA-M 3,2025-155A,2026-07-17T22:26:46.336128,14.21491113,.0002362,98.6042,160.0693,108.4295,251.7140,0,U,64876,999,5077,.24632784E-4,.11E-6,0
IONOSFERA-M 4,2025-155B,2026-07-17T23:16:52.065120,14.21493535,.00018625,98.6041,160.0203,97.0629,263.0761,0,U,64877,999,5077,.25813486E-4,.14E-6,0
MICROCARB,2025-156A,2026-07-17T22:16:35.859648,14.72886838,.00178351,98.0074,275.5918,162.1494,198.0344,0,U,64899,999,5249,.46901986E-4,.251E-5,0
CO3D 3,2025-156B,2026-07-17T22:14:42.450144,15.20204279,.00017667,97.4333,277.1783,93.7636,266.3802,0,U,64900,999,5420,.10199163E-3,.2141E-4,0
CO3D 4,2025-156C,2026-07-17T22:14:55.612320,15.20202986,.00018125,97.4336,277.1783,149.1955,210.9387,0,U,64901,999,5420,.32841615E-4,.643E-5,0
CO3D 2,2025-156D,2026-07-17T21:26:54.146400,15.20207123,.00011967,97.4333,277.0444,92.1067,268.0305,0,U,64902,999,5419,.15194676E-3,.3224E-4,0
CO3D 1,2025-156E,2026-07-17T21:27:06.810048,15.20213651,.00013321,97.4333,277.0444,103.1582,256.9802,0,U,64903,999,5419,.10698229E-3,.225E-4,0
PRSC-S1,2025-164A,2026-07-17T22:58:34.872384,15.06648929,.00071316,41.1302,114.4846,215.0729,144.9616,0,U,65055,999,5307,.17109737E-3,.2405E-4,0
SENTINEL-6B,2025-264A,2026-07-17T22:13:11.276544,12.80930218,.00078343,66.0411,71.3350,268.5138,91.4980,0,U,66514,999,3110,.69349327E-4,-.45E-6,0
CAS500-3,2025-274F,2026-07-17T19:18:46.247616,14.88387111,.00060653,97.7435,126.1595,30.9075,329.2498,0,U,66655,999,3470,.65428808E-4,.552E-5,0
CSG-3,2026-001A,2026-07-17T21:59:32.684928,14.82152966,.00015273,97.8897,22.0743,93.4423,266.6964,0,U,67304,999,2901,.19802122E-4,.105E-5,0
PRSC-E03,2026-092A,2026-07-17T16:09:33.686784,15.06815202,.00050333,38.0009,269.8907,266.3546,93.6640,0,U,68835,999,1255,.77904899E-4,.1073E-4,0
CAS500-2,2026-100AK,2026-07-17T16:24:28.441728,15.19741424,.00079276,97.3854,95.9559,243.1066,116.9359,0,U,69013,999,1144,.16026891E-3,.336E-4,0
